ONEWEB-0578             
1 56067U 23043X   25022.15281911  .00000020  00000+0  18009-4 0  9998
2 56067  87.9326 345.8022 0001885  78.0699 282.0646 13.21824159 90728
ONEWEB-0579             
1 56068U 23043Y   25023.35449703  .00000071  00000+0  14034-3 0  9996
2 56068  87.9324 345.5541 0001545  91.9147 268.2164 13.21827372 90894
ONEWEB-0581             
1 56069U 23043Z   25023.13467503  .00000054  00000+0  10662-3 0  9995
2 56069  87.9119 330.4299 0001286  68.9482 291.1786 13.16594465 92758
ONEWEB-0609             
1 56070U 23043AA  25023.37149214  .00000186  00000+0  46021-3 0  9993
2 56070  87.9087   0.7276 0001859  87.0399 273.0944 13.15548622 89407
ONEWEB-0613             
1 56071U 23043AB  25023.36674673  .00000140  00000+0  33839-3 0  9998
2 56071  87.9092   0.7334 0001684  94.0585 266.0738 13.15550611 89404
ONEWEB-0630             
1 56072U 23043AC  25023.36196626  .00000100  00000+0  23148-3 0  9994
2 56072  87.9088   0.7173 0001775  95.5211 264.6122 13.15546933 89395
ONEWEB-0632             
1 56073U 23043AD  25023.35722603  .00000068  00000+0  14599-3 0  9997
2 56073  87.9088   0.7376 0001488  82.0148 278.1152 13.15549732 89395
ONEWEB-0633             
1 56074U 23043AE  25023.35089979 -.00000027  00000+0 -10513-3 0  9999
2 56074  87.9085   0.7122 0001980  99.2726 260.8628 13.15550263 89376
